{
    "links": {
        "self": "http://www.neowsapp.com/rest/v1/neo/3663826?api_key=iIulBulltgU6a56xZRHN4H3l9WmuAYTsLGpBGhQ2"
    },
    "id": "3663826",
    "neo_reference_id": "3663826",
    "name": "(2014 EB25)",
    "designation": "2014 EB25",
    "nasa_jpl_url": "http://ssd.jpl.nasa.gov/sbdb.cgi?sstr=3663826",
    "absolute_magnitude_h": 27.1,
    "estimated_diameter": {
        "kilometers": {
            "estimated_diameter_min": 0.0101054342,
            "estimated_diameter_max": 0.0225964377
        },
        "meters": {
            "estimated_diameter_min": 10.1054341542,
            "estimated_diameter_max": 22.5964377109
        },
        "miles": {
            "estimated_diameter_min": 0.0062792237,
            "estimated_diameter_max": 0.0140407711
        },
        "feet": {
            "estimated_diameter_min": 33.1543125905,
            "estimated_diameter_max": 74.1352966996
        }
    },
    "is_potentially_hazardous_asteroid": false,
    "close_approach_data": [
        {
            "close_approach_date": "2014-03-14",
            "close_approach_date_full": "2014-Mar-14 04:46",
            "epoch_date_close_approach": 1394772360000,
            "relative_velocity": {
                "kilometers_per_second": "13.6471914882",
                "kilometers_per_hour": "49129.8893573598",
                "miles_per_hour": "30527.402639855"
            },
            "miss_distance": {
                "astronomical": "0.0071768098",
                "lunar": "2.7917790122",
                "kilometers": "1073635.459475126",
                "miles": "667126.1394676988"
            },
            "orbiting_body": "Moon"
        },
        {
            "close_approach_date": "2014-03-14",
            "close_approach_date_full": "2014-Mar-14 09:57",
            "epoch_date_close_approach": 1394791020000,
            "relative_velocity": {
                "kilometers_per_second": "13.2804513263",
                "kilometers_per_hour": "47809.6247748438",
                "miles_per_hour": "29707.0415719022"
            },
            "miss_distance": {
                "astronomical": "0.0070290722",
                "lunar": "2.7343090858",
                "kilometers": "1051534.229196214",
                "miles": "653393.0717831932"
            },
            "orbiting_body": "Earth"
        }
    ],
    "orbital_data": {
        "orbit_id": "4",
        "orbit_determination_date": "2017-04-06 08:42:05",
        "first_observation_date": "2014-03-12",
        "last_observation_date": "2014-03-12",
        "data_arc_in_days": null,
        "observations_used": 12,
        "orbit_uncertainty": "9",
        "minimum_orbit_intersection": ".00477762",
        "jupiter_tisserand_invariant": "4.693",
        "epoch_osculation": "2456728.5",
        "eccentricity": ".4204479617338608",
        "semi_major_axis": "1.377852146972951",
        "inclination": "10.9695621102443",
        "ascending_node_longitude": "352.6349148178466",
        "orbital_period": "590.7481262403485",
        "perihelion_distance": ".7985370202075495",
        "perihelion_argument": "252.0774299428981",
        "aphelion_distance": "1.957167273738352",
        "perihelion_time": "2456781.334835979863",
        "mean_anomaly": "327.8026216116814",
        "mean_motion": ".6093967699755892",
        "equinox": "J2000",
        "orbit_class": {
            "orbit_class_type": "APO",
            "orbit_class_description": "Near-Earth asteroid orbits which cross the Earth’s orbit similar to that of 1862 Apollo",
            "orbit_class_range": "a (semi-major axis) > 1.0 AU; q (perihelion) < 1.017 AU"
        }
    },
    "is_sentry_object": false
}